[{"OBJECT_NAME":"BEIDOU-2 G5 (C05)","OBJECT_ID":"2012-008A","EPOCH":"2026-03-28T21:54:32.109696","MEAN_MOTION":1.00273247,"ECCENTRICITY":0.00135157,"INCLINATION":3.3741,"RA_OF_ASC_NODE":70.149,"ARG_OF_PERICENTER":257.99,"MEAN_ANOMALY":245.5221,"EPHEMERIS_TYPE":0,"CLASSIFICATION_TYPE":"U","NORAD_CAT_ID":38091,"ELEMENT_SET_NO":999,"REV_AT_EPOCH":5156,"BSTAR":0,"MEAN_MOTION_DOT":4.0e-7,"MEAN_MOTION_DDOT":0},{"OBJECT_NAME":"BEIDOU-2 M3 (C11)","OBJECT_ID":"2012-018A","EPOCH":"2026-03-27T00:49:15.100320","MEAN_MOTION":1.86229764,"ECCENTRICITY":0.0020428,"INCLINATION":55.8269,"RA_OF_ASC_NODE":307.6446,"ARG_OF_PERICENTER":279.3138,"MEAN_ANOMALY":80.4965,"EPHEMERIS_TYPE":0,"CLASSIFICATION_TYPE":"U","NORAD_CAT_ID":38250,"ELEMENT_SET_NO":999,"REV_AT_EPOCH":9441,"BSTAR":0,"MEAN_MOTION_DOT":-3.5e-7,"MEAN_MOTION_DDOT":0},{"OBJECT_NAME":"BEIDOU-2 M4 (C12)","OBJECT_ID":"2012-018B","EPOCH":"2026-03-26T23:11:35.297664","MEAN_MOTION":1.86229475,"ECCENTRICITY":0.0011786,"INCLINATION":55.7282,"RA_OF_ASC_NODE":306.8676,"ARG_OF_PERICENTER":286.4147,"MEAN_ANOMALY":73.4963,"EPHEMERIS_TYPE":0,"CLASSIFICATION_TYPE":"U","NORAD_CAT_ID":38251,"ELEMENT_SET_NO":999,"REV_AT_EPOCH":9441,"BSTAR":0,"MEAN_MOTION_DOT":-3.3e-7,"MEAN_MOTION_DDOT":0},{"OBJECT_NAME":"SES-5 (EGNOS/PRN 136)","OBJECT_ID":"2012-036A","EPOCH":"2026-03-28T20:21:38.559744","MEAN_MOTION":1.00271932,"ECCENTRICITY":0.00021077,"INCLINATION":0.0628,"RA_OF_ASC_NODE":304.7555,"ARG_OF_PERICENTER":56.5266,"MEAN_ANOMALY":135.3475,"EPHEMERIS_TYPE":0,"CLASSIFICATION_TYPE":"U","NORAD_CAT_ID":38652,"ELEMENT_SET_NO":999,"REV_AT_EPOCH":4365,"BSTAR":0,"MEAN_MOTION_DOT":1.4e-7,"MEAN_MOTION_DDOT":0},{"OBJECT_NAME":"BEIDOU-2 M6 (C14)","OBJECT_ID":"2012-050B","EPOCH":"2026-03-23T23:47:57.952608","MEAN_MOTION":1.86230776,"ECCENTRICITY":0.00143415,"INCLINATION":56.4716,"RA_OF_ASC_NODE":65.7096,"ARG_OF_PERICENTER":343.8806,"MEAN_ANOMALY":16.067,"EPHEMERIS_TYPE":0,"CLASSIFICATION_TYPE":"U","NORAD_CAT_ID":38775,"ELEMENT_SET_NO":999,"REV_AT_EPOCH":9172,"BSTAR":0,"MEAN_MOTION_DOT":-1.0e-8,"MEAN_MOTION_DDOT":0},{"OBJECT_NAME":"GSAT-10 (GAGAN/PRN 128)","OBJECT_ID":"2012-051B","EPOCH":"2026-03-28T22:01:31.440000","MEAN_MOTION":1.00270491,"ECCENTRICITY":0.00055824,"INCLINATION":0.0094,"RA_OF_ASC_NODE":190.415,"ARG_OF_PERICENTER":250.103,"MEAN_ANOMALY":159.1732,"EPHEMERIS_TYPE":0,"CLASSIFICATION_TYPE":"U","NORAD_CAT_ID":38779,"ELEMENT_SET_NO":999,"REV_AT_EPOCH":4929,"BSTAR":0,"MEAN_MOTION_DOT":-1.84e-6,"MEAN_MOTION_DDOT":0},{"OBJECT_NAME":"GPS BIIF-3  (PRN 24)","OBJECT_ID":"2012-053A","EPOCH":"2026-03-27T01:15:46.012032","MEAN_MOTION":2.00566077,"ECCENTRICITY":0.0177237,"INCLINATION":53.5685,"RA_OF_ASC_NODE":146.9649,"ARG_OF_PERICENTER":64.9128,"MEAN_ANOMALY":296.9786,"EPHEMERIS_TYPE":0,"CLASSIFICATION_TYPE":"U","NORAD_CAT_ID":38833,"ELEMENT_SET_NO":999,"REV_AT_EPOCH":9779,"BSTAR":0,"MEAN_MOTION_DOT":-4.0e-8,"MEAN_MOTION_DDOT":0},{"OBJECT_NAME":"GSAT0103 (GALILEO-FM3)","OBJECT_ID":"2012-055A","EPOCH":"2026-03-27T08:29:07.581408","MEAN_MOTION":1.70473333,"ECCENTRICITY":0.0005825,"INCLINATION":55.7542,"RA_OF_ASC_NODE":103.7894,"ARG_OF_PERICENTER":290.2864,"MEAN_ANOMALY":69.7017,"EPHEMERIS_TYPE":0,"CLASSIFICATION_TYPE":"U","NORAD_CAT_ID":38857,"ELEMENT_SET_NO":999,"REV_AT_EPOCH":8361,"BSTAR":0,"MEAN_MOTION_DOT":3.9e-7,"MEAN_MOTION_DDOT":0},{"OBJECT_NAME":"BEIDOU-2 G6 (C02)","OBJECT_ID":"2012-059A","EPOCH":"2026-03-28T22:01:46.415712","MEAN_MOTION":1.00272192,"ECCENTRICITY":0.0010514,"INCLINATION":4.2187,"RA_OF_ASC_NODE":74.3634,"ARG_OF_PERICENTER":307.9252,"MEAN_ANOMALY":218.5235,"EPHEMERIS_TYPE":0,"CLASSIFICATION_TYPE":"U","NORAD_CAT_ID":38953,"ELEMENT_SET_NO":999,"REV_AT_EPOCH":4910,"BSTAR":0,"MEAN_MOTION_DOT":-1.92e-6,"MEAN_MOTION_DDOT":0},{"OBJECT_NAME":"LUCH 5B (SDCM/PRN 125)","OBJECT_ID":"2012-061A","EPOCH":"2026-03-28T16:25:03.415584","MEAN_MOTION":1.0027332,"ECCENTRICITY":0.0003249,"INCLINATION":10.3113,"RA_OF_ASC_NODE":50.6629,"ARG_OF_PERICENTER":223.4776,"MEAN_ANOMALY":141.8589,"EPHEMERIS_TYPE":0,"CLASSIFICATION_TYPE":"U","NORAD_CAT_ID":38977,"ELEMENT_SET_NO":999,"REV_AT_EPOCH":4880,"BSTAR":0,"MEAN_MOTION_DOT":-1.5e-6,"MEAN_MOTION_DDOT":0},{"OBJECT_NAME":"COSMOS 2485 (747)","OBJECT_ID":"2013-019A","EPOCH":"2026-03-28T04:44:19.319712","MEAN_MOTION":2.13102903,"ECCENTRICITY":0.00251415,"INCLINATION":65.375,"RA_OF_ASC_NODE":76.3211,"ARG_OF_PERICENTER":237.7712,"MEAN_ANOMALY":121.9957,"EPHEMERIS_TYPE":0,"CLASSIFICATION_TYPE":"U","NORAD_CAT_ID":39155,"ELEMENT_SET_NO":999,"REV_AT_EPOCH":10055,"BSTAR":0,"MEAN_MOTION_DOT":4.5e-7,"MEAN_MOTION_DDOT":0},{"OBJECT_NAME":"GPS BIIF-4  (PRN 27)","OBJECT_ID":"2013-023A","EPOCH":"2026-03-27T21:57:27.416160","MEAN_MOTION":2.00563931,"ECCENTRICITY":0.01419414,"INCLINATION":54.5687,"RA_OF_ASC_NODE":272.2822,"ARG_OF_PERICENTER":50.2899,"MEAN_ANOMALY":310.9532,"EPHEMERIS_TYPE":0,"CLASSIFICATION_TYPE":"U","NORAD_CAT_ID":39166,"ELEMENT_SET_NO":999,"REV_AT_EPOCH":9425,"BSTAR":0,"MEAN_MOTION_DOT":6.0e-8,"MEAN_MOTION_DDOT":0},{"OBJECT_NAME":"IRNSS-1A","OBJECT_ID":"2013-034A","EPOCH":"2026-03-28T00:19:38.724960","MEAN_MOTION":1.00277123,"ECCENTRICITY":0.0016621,"INCLINATION":35.5432,"RA_OF_ASC_NODE":65.0278,"ARG_OF_PERICENTER":190.5814,"MEAN_ANOMALY":349.6873,"EPHEMERIS_TYPE":0,"CLASSIFICATION_TYPE":"U","NORAD_CAT_ID":39199,"ELEMENT_SET_NO":999,"REV_AT_EPOCH":4655,"BSTAR":0,"MEAN_MOTION_DOT":7.9e-7,"MEAN_MOTION_DDOT":0},{"OBJECT_NAME":"GPS BIIF-5  (PRN 30)","OBJECT_ID":"2014-008A","EPOCH":"2026-03-28T09:54:53.470368","MEAN_MOTION":2.00554546,"ECCENTRICITY":0.0083084,"INCLINATION":53.6397,"RA_OF_ASC_NODE":152.6153,"ARG_OF_PERICENTER":229.1635,"MEAN_ANOMALY":130.1722,"EPHEMERIS_TYPE":0,"CLASSIFICATION_TYPE":"U","NORAD_CAT_ID":39533,"ELEMENT_SET_NO":999,"REV_AT_EPOCH":8806,"BSTAR":0,"MEAN_MOTION_DOT":-2.0e-8,"MEAN_MOTION_DDOT":0},{"OBJECT_NAME":"ASTRA 5B (EGNOS/PRN 123)","OBJECT_ID":"2014-011B","EPOCH":"2026-03-28T20:10:38.702208","MEAN_MOTION":1.00269219,"ECCENTRICITY":0.0003643,"INCLINATION":0.0879,"RA_OF_ASC_NODE":299.841,"ARG_OF_PERICENTER":41.405,"MEAN_ANOMALY":171.1597,"EPHEMERIS_TYPE":0,"CLASSIFICATION_TYPE":"U","NORAD_CAT_ID":39617,"ELEMENT_SET_NO":999,"REV_AT_EPOCH":4386,"BSTAR":0,"MEAN_MOTION_DOT":1.17e-6,"MEAN_MOTION_DDOT":0},{"OBJECT_NAME":"COSMOS 2492 (754)","OBJECT_ID":"2014-012A","EPOCH":"2026-03-26T06:42:14.156928","MEAN_MOTION":2.13103147,"ECCENTRICITY":0.00126427,"INCLINATION":65.3447,"RA_OF_ASC_NODE":316.7556,"ARG_OF_PERICENTER":328.9539,"MEAN_ANOMALY":31.0243,"EPHEMERIS_TYPE":0,"CLASSIFICATION_TYPE":"U","NORAD_CAT_ID":39620,"ELEMENT_SET_NO":999,"REV_AT_EPOCH":9347,"BSTAR":0,"MEAN_MOTION_DOT":-2.9e-7,"MEAN_MOTION_DDOT":0},{"OBJECT_NAME":"IRNSS-1B","OBJECT_ID":"2014-017A","EPOCH":"2026-03-28T11:37:46.490304","MEAN_MOTION":1.00278812,"ECCENTRICITY":0.0021948,"INCLINATION":29.0683,"RA_OF_ASC_NODE":241.7822,"ARG_OF_PERICENTER":181.1529,"MEAN_ANOMALY":352.5587,"EPHEMERIS_TYPE":0,"CLASSIFICATION_TYPE":"U","NORAD_CAT_ID":39635,"ELEMENT_SET_NO":999,"REV_AT_EPOCH":4398,"BSTAR":0,"MEAN_MOTION_DOT":8.4e-7,"MEAN_MOTION_DDOT":0}]
